OBJECT_NAME,OBJECT_ID,EPOCH,MEAN_MOTION,ECCENTRICITY,INCLINATION,RA_OF_ASC_NODE,ARG_OF_PERICENTER,MEAN_ANOMALY,EPHEMERIS_TYPE,CLASSIFICATION_TYPE,NORAD_CAT_ID,ELEMENT_SET_NO,REV_AT_EPOCH,BSTAR,MEAN_MOTION_DOT,MEAN_MOTION_DDOT
TIBA-1,2019-080A,2026-06-09T03:14:11.122080,1.00274613,.0002144,0.0514,348.1419,113.6105,239.8347,0,U,44800,999,2397,0,.172E-5,0
INMARSAT GX5,2019-080B,2026-06-09T03:07:26.769216,1.00270606,.0002409,0.0383,11.5905,64.5747,239.2443,0,U,44801,999,670,0,.91E-6,0
JCSAT-18 (KACIFIC 1),2019-091A,2026-06-08T20:56:26.959200,1.00270646,.0000298,0.0210,231.9843,343.0659,146.3379,0,U,44868,999,2392,0,-.184E-5,0
ELEKTRO-L 3,2019-095A,2026-06-09T02:37:38.877600,1.00272505,.000142,0.2351,81.2359,352.9329,298.6867,0,U,44903,999,2362,0,-.8E-6,0
SHIJIAN-20 (SJ-20),2019-097A,2026-06-08T22:09:02.219904,1.00275064,.001381,4.8969,75.1634,53.2763,145.9115,0,U,44910,999,2361,0,.151E-5,0
TJS-5,2020-002A,2026-06-08T07:02:50.011296,1.00270090,.0007546,0.0340,284.4831,122.5246,62.8811,0,U,44978,999,2362,0,-.326E-5,0
GSAT-30,2020-005A,2026-06-09T03:27:54.806112,1.00269386,.0003409,0.0531,105.7770,339.2323,307.4766,0,U,45026,999,2342,0,-.147E-5,0
EUTELSAT KONNECT,2020-005B,2026-06-09T03:06:19.377216,1.00273234,.000145,0.0706,99.2729,119.5425,92.5263,0,U,45027,999,2425,0,.67E-6,0
JCSAT-17,2020-013A,2026-06-09T00:17:45.065760,1.00271700,.0002776,5.3923,356.7810,78.1092,322.9573,0,U,45245,999,2315,0,-.306E-5,0
GEO-KOMPSAT-2B,2020-013B,2026-06-08T22:32:52.890720,1.00270522,.0000322,0.0410,162.9702,146.4394,54.3942,0,U,45246,999,2319,0,-.327E-5,0
BEIDOU-3 G2,2020-017A,2026-06-09T03:27:09.878112,1.00273719,.0002535,2.8472,47.2141,29.0141,313.1430,0,U,45344,999,2317,0,-.125E-5,0
AEHF-6 (USA 298),2020-022B,2026-06-09T00:18:22.507200,1.00275159,.0043143,2.5670,301.0243,17.3725,81.3228,0,U,45465,999,2293,0,-.282E-5,0
BEIDOU-3 G3,2020-040A,2026-06-09T01:53:08.498976,1.00271734,.0002873,2.4264,67.4295,338.5693,350.3288,0,U,45807,999,2198,0,-.337E-5,0
APSTAR-6D,2020-045A,2026-06-08T00:14:24.442368,1.00270839,.00022336,0.0489,106.8068,339.1651,308.0700,0,U,45863,999,2176,0,-.302E-5,0
KOREASAT 116,2020-048A,2026-06-09T01:54:45.844128,1.00272772,.0000952,0.0108,322.8076,109.4456,330.1201,0,U,45920,999,2155,0,-.345E-5,0
EXPRESS 103,2020-053A,2026-06-09T02:21:38.742048,1.00272756,.0000393,0.0189,281.6871,117.2209,350.4899,0,U,45985,999,2156,0,-.264E-5,0
EXPRESS 80,2020-053B,2026-06-09T01:30:21.181824,1.00272842,.0002286,0.0188,301.4542,213.4381,205.1294,0,U,45986,999,2154,0,-.119E-5,0
BSAT-4B,2020-056A,2026-06-09T00:10:23.273184,1.00262017,.0003485,0.0101,177.6306,290.6824,261.4935,0,U,46112,999,2130,0,0,0
MEV-2,2020-056B,2026-06-09T01:21:21.231072,1.00269264,.0000525,0.0151,336.1514,195.6343,104.9809,0,U,46113,999,8047,0,.5E-7,0
GALAXY 30 (G-30),2020-056C,2026-06-09T02:28:40.348128,1.00273274,.0002183,0.0165,310.7901,122.4086,96.4532,0,U,46114,999,2121,0,.53E-6,0
GAOFEN-13 01,2020-071A,2026-06-09T01:41:38.766912,1.00275447,.0041206,0.4992,84.9383,123.2680,192.8332,0,U,46610,999,2083,0,-.346E-5,0
TIANTONG-1 2,2020-082A,2026-06-08T15:41:14.221248,1.00267814,.0001384,0.8019,326.2020,110.9677,180.0960,0,U,46916,999,2056,0,-.34E-5,0
LUCAS (JDRS-1),2020-089A,2026-06-08T22:56:54.801312,1.00273273,.0002323,0.0269,277.5195,151.3066,263.5345,0,U,47202,999,2033,0,-.219E-5,0
SXM-7,2020-096A,2026-06-08T21:32:02.222016,1.00272150,.0003988,0.0403,145.8843,339.0032,10.2626,0,U,47240,999,736,0,-.189E-5,0
CMS-01,2020-099A,2026-06-09T01:45:16.753248,1.00272389,.0003592,0.0765,98.8828,180.4577,87.4238,0,U,47256,999,2011,0,-.148E-5,0
TURKSAT 5A,2021-001A,2026-06-09T03:12:56.241792,1.00271093,.0000118,0.0181,54.9878,88.9323,192.7666,0,U,47306,999,1988,0,.171E-5,0
TIANTONG-1 3,2021-003A,2026-06-09T03:27:32.342976,1.00272378,.0003487,1.7629,338.7912,105.7130,306.4570,0,U,47321,999,1988,0,-.14E-5,0
TJS-6,2021-010A,2026-06-09T03:55:11.669664,1.00276910,.0003706,0.2720,264.5041,212.5279,17.8395,0,U,47613,999,1972,0,.61E-6,0
SBIRS GEO-5 (USA 315),2021-042A,2026-06-08T22:23:01.335840,1.00271413,.000155,5.1147,329.0540,119.3031,238.5308,0,U,48618,999,1868,0,-.257E-5,0
FENGYUN 4B,2021-047A,2026-06-09T01:51:23.667264,1.00263952,.0005106,0.1319,76.4111,287.3903,26.0598,0,U,48808,999,1848,0,-.312E-5,0
SXM-8,2021-049A,2026-06-08T21:32:02.222016,1.00271519,.0004969,0.0181,10.7842,21.8826,102.4863,0,U,48838,999,1850,0,-.189E-5,0
TIANLIAN 1-05,2021-063A,2026-06-08T06:37:09.119136,1.00271864,.0000917,1.5698,80.7788,319.0840,332.9207,0,U,49011,999,1798,0,.124E-5,0
