TIBA-1                  
1 44800U 19080A   26160.13485095  .00000172  00000+0  00000+0 0  9992
2 44800   0.0514 348.1419 0002144 113.6105 239.8347  1.00274613 23977
INMARSAT GX5            
1 44801U 19080B   26160.13017094  .00000091  00000+0  00000+0 0  9993
2 44801   0.0383  11.5905 0002409  64.5747 239.2443  1.00270606  6704
JCSAT-18 (KACIFIC 1)    
1 44868U 19091A   26159.87253425 -.00000184  00000+0  00000+0 0  9991
2 44868   0.0210 231.9843 0000298 343.0659 146.3379  1.00270646 23929
ELEKTRO-L 3             
1 44903U 19095A   26160.10947775 -.00000080  00000+0  00000+0 0  9996
2 44903   0.2351  81.2359 0001420 352.9329 298.6867  1.00272505 23622
SHIJIAN-20 (SJ-20)      
1 44910U 19097A   26159.92294236  .00000151  00000+0  00000+0 0  9999
2 44910   4.8969  75.1634 0013810  53.2763 145.9115  1.00275064 23614
TJS-5                   
1 44978U 20002A   26159.29363439 -.00000326  00000+0  00000+0 0  9998
2 44978   0.0340 284.4831 0007546 122.5246  62.8811  1.00270090 23623
GSAT-30                 
1 45026U 20005A   26160.14438433 -.00000147  00000+0  00000+0 0  9990
2 45026   0.0531 105.7770 0003409 339.2323 307.4766  1.00269386 23425
EUTELSAT KONNECT        
1 45027U 20005B   26160.12939094  .00000067  00000+0  00000+0 0  9998
2 45027   0.0706  99.2729 0001450 119.5425  92.5263  1.00273234 24250
JCSAT-17                
1 45245U 20013A   26160.01232715 -.00000306  00000+0  00000+0 0  9990
2 45245   5.3923 356.7810 0002776  78.1092 322.9573  1.00271700 23153
GEO-KOMPSAT-2B          
1 45246U 20013B   26159.93950105 -.00000327  00000+0  00000+0 0  9993
2 45246   0.0410 162.9702 0000322 146.4394  54.3942  1.00270522 23194
BEIDOU-3 G2             
1 45344U 20017A   26160.14386433 -.00000125  00000+0  00000+0 0  9994
2 45344   2.8472  47.2141 0002535  29.0141 313.1430  1.00273719 23174
AEHF-6 (USA 298)        
1 45465U 20022B   26160.01276050 -.00000282  00000+0  00000+0 0  9997
2 45465   2.5670 301.0243 0043143  17.3725  81.3228  1.00275159 22939
BEIDOU-3 G3             
1 45807U 20040A   26160.07857059 -.00000337  00000+0  00000+0 0  9998
2 45807   2.4264  67.4295 0002873 338.5693 350.3288  1.00271734 21988
APSTAR-6D               
1 45863U 20045A   26159.01000512 -.00000302  00000+0  00000+0 0  9993
2 45863   0.0489 106.8068 0002233 339.1651 308.0700  1.00270839 21760
KOREASAT 116            
1 45920U 20048A   26160.07969727 -.00000345  00000+0  00000+0 0  9997
2 45920   0.0108 322.8076 0000952 109.4456 330.1201  1.00272772 21555
EXPRESS 103             
1 45985U 20053A   26160.09836507 -.00000264  00000+0  00000+0 0  9995
2 45985   0.0189 281.6871 0000393 117.2209 350.4899  1.00272756 21563
EXPRESS 80              
1 45986U 20053B   26160.06274516 -.00000119  00000+0  00000+0 0  9998
2 45986   0.0188 301.4542 0002286 213.4381 205.1294  1.00272842 21541
BSAT-4B                 
1 46112U 20056A   26160.00721381  .00000000  00000+0  00000+0 0  9992
2 46112   0.0101 177.6306 0003485 290.6824 261.4935  1.00262017 21304
MEV-2                   
1 46113U 20056B   26160.05649573  .00000005  00000+0  00000+0 0  9995
2 46113   0.0151 336.1514 0000525 195.6343 104.9809  1.00269264 80470
GALAXY 30 (G-30)        
1 46114U 20056C   26160.10324477  .00000053  00000+0  00000+0 0  9998
2 46114   0.0165 310.7901 0002183 122.4086  96.4532  1.00273274 21219
GAOFEN-13 01            
1 46610U 20071A   26160.07058758 -.00000346  00000+0  00000+0 0  9994
2 46610   0.4992  84.9383 0041206 123.2680 192.8332  1.00275447 20834
TIANTONG-1 2            
1 46916U 20082A   26159.65363682 -.00000340  00000+0  00000+0 0  9996
2 46916   0.8019 326.2020 0001384 110.9677 180.0960  1.00267814 20564
LUCAS (JDRS-1)          
1 47202U 20089A   26159.95618983 -.00000219  00000+0  00000+0 0  9997
2 47202   0.0269 277.5195 0002323 151.3066 263.5345  1.00273273 20333
SXM-7                   
1 47240U 20096A   26159.89724794 -.00000189  00000+0  00000+0 0  9994
2 47240   0.0403 145.8843 0003988 339.0032  10.2626  1.00272150  7368
CMS-01                  
1 47256U 20099A   26160.07311057 -.00000148  00000+0  00000+0 0  9995
2 47256   0.0765  98.8828 0003592 180.4577  87.4238  1.00272389 20116
TURKSAT 5A              
1 47306U 21001A   26160.13398428  .00000171  00000+0  00000+0 0  9994
2 47306   0.0181  54.9878 0000118  88.9323 192.7666  1.00271093 19882
TIANTONG-1 3            
1 47321U 21003A   26160.14412434 -.00000140  00000+0  00000+0 0  9995
2 47321   1.7629 338.7912 0003487 105.7130 306.4570  1.00272378 19887
TJS-6                   
1 47613U 21010A   26160.16332951  .00000061  00000+0  00000+0 0  9995
2 47613   0.2720 264.5041 0003706 212.5279  17.8395  1.00276910 19728
SBIRS GEO-5 (USA 315)   
1 48618U 21042A   26159.93265435 -.00000257  00000+0  00000+0 0  9999
2 48618   5.1147 329.0540 0001550 119.3031 238.5308  1.00271413 18680
FENGYUN 4B              
1 48808U 21047A   26160.07735726 -.00000312  00000+0  00000+0 0  9999
2 48808   0.1319  76.4111 0005106 287.3903  26.0598  1.00263952 18487
SXM-8                   
1 48838U 21049A   26159.89724794 -.00000189  00000+0  00000+0 0  9997
2 48838   0.0181  10.7842 0004969  21.8826 102.4863  1.00271519 18504
TIANLIAN 1-05           
1 49011U 21063A   26159.27579999  .00000124  00000+0  00000+0 0  9992
2 49011   1.5698  80.7788 0000917 319.0840 332.9207  1.00271864 17986
